0 THOR BURNER 2 R/B
1 06788U 73054B   13281.82565829  .00000126  00000-0  71559-4 0  8346
2 06788 098.6508 069.9825 0028151 197.7506 162.2693 14.25628754 85105
0 THOR BURNER 2 R/B
1 06788U 73054B   13283.01879533  .00000112  00000-0  65517-4 0  8352
2 06788 098.6509 071.1600 0028220 194.2387 165.8000 14.25629805 85275
0 THOR BURNER 2 R/B
1 06788U 73054B   13286.10691205  .00000105  00000-0  62480-4 0  8373
2 06788 098.6515 074.2074 0028403 185.2144 174.8744 14.25630750 85721
0 THOR BURNER 2 R/B
1 06788U 73054B   13287.44041653  .00000100  00000-0  60569-4 0  8389
2 06788 098.6517 075.5233 0028463 181.4579 178.6523 14.25631347 85911
0 THOR BURNER 2 R/B
1 06788U 73054B   13288.77392009  .00000151  00000-0  81910-4 0  8390
2 06788 098.6521 076.8393 0028534 177.6002 182.5320 14.25631967 86103
0 THOR BURNER 2 R/B
1 06788U 73054B   13289.82668578  .00000145  00000-0  79490-4 0  8409
2 06788 098.6524 077.8783 0028602 174.5551 185.5945 14.25632297 86250
0 THOR BURNER 2 R/B
1 06788U 73054B   13291.01981985  .00000136  00000-0  75450-4 0  8416
2 06788 098.6525 079.0558 0028657 171.1584 189.0107 14.25632797 86427
0 THOR BURNER 2 R/B
1 06788U 73054B   13292.49369073  .00000163  00000-0  86902-4 0  8422
2 06788 098.6527 080.5105 0028721 166.9534 193.2395 14.25633410 86635
0 THOR BURNER 2 R/B
1 06788U 73054B   13293.82719210  .00000208  00000-0  10575-3 0  8435
2 06788 098.6527 081.8266 0028767 163.1681 197.0459 14.25633785 86828
0 THOR BURNER 2 R/B
1 06788U 73054B   13295.02032488  .00000188  00000-0  97480-4 0  8443
2 06788 098.6527 083.0043 0028818 159.7750 200.4578 14.25634425 86991
